IRIDIUM 39              
1 25042U 97069D   25346.94576055  .00001213  00000+0  31055-3 0  9998
2 25042  86.3915 134.5432 0019632  71.6548 288.6790 14.49506008474856
IRIDIUM 38              
1 25043U 97069E   25347.18649859  .00000755  00000+0  24185-3 0  9995
2 25043  86.3971 157.9199 0001304 157.3478 202.7778 14.38314392471681
IRIDIUM 42              
1 25077U 97077A   25346.99526299  .00000693  00000+0  22950-3 0  9990
2 25077  86.3978 164.3878 0001292 100.8370 259.2972 14.36532254466865
IRIDIUM 44              
1 25078U 97077B   25347.16143644  .00000654  00000+0  19975-3 0  9990
2 25078  86.3965 145.7777 0003240 123.7216 236.4293 14.40432849469467
IRIDIUM 45              
1 25104U 97082A   25347.32903780  .00049570  00000+0  13975-2 0  9992
2 25104  86.3541 320.3885 0099440  18.8873 341.6021 15.31311660479364
IRIDIUM 24              
1 25105U 97082B   25347.31846480  .00000750  00000+0  22112-3 0  9996
2 25105  86.3910   4.3068 0010610 195.2590 164.8292 14.42328557469037
IRIDIUM 51              
1 25262U 98018A   25347.22183405  .00153518  00000+0  16249-2 0  9995
2 25262  86.3728 325.9978 0047139 272.3632  87.2237 15.62257413474724
IRIDIUM 57              
1 25273U 98019B   25347.32956326  .00000560  00000+0  18607-3 0  9998
2 25273  86.3958  70.1427 0002079  97.8775 262.2657 14.36052456450490
